CCSDS_OMM_VERS = 2.0
CREATION_DATE  = 
ORIGINATOR     = 

OBJECT_NAME    = TWILIGHT K
OBJECT_ID      = 2026-004K
CENTER_NAME    = EARTH
REF_FRAME      = TEME
TIME_SYSTEM    = UTC
MEAN_ELEMENT_THEORY = SGP/SGP4

EPOCH          = 2026-01-27T22:55:28.121376
MEAN_MOTION    = 14.87946540
ECCENTRICITY   = .0003117
INCLINATION    = 97.7971
RA_OF_ASC_NODE = 28.8501
ARG_OF_PERICENTER = 215.5981
MEAN_ANOMALY   = 144.5028

EPHEMERIS_TYPE = 0
CLASSIFICATION_TYPE = U
NORAD_CAT_ID   = 67372
ELEMENT_SET_NO = 999
REV_AT_EPOCH   = 244
BSTAR          = .39422727E-3
MEAN_MOTION_DOT = .356E-4
MEAN_MOTION_DDOT = 0

CCSDS_OMM_VERS = 2.0
CREATION_DATE  = 
ORIGINATOR     = 

OBJECT_NAME    = TWILIGHT L
OBJECT_ID      = 2026-004L
CENTER_NAME    = EARTH
REF_FRAME      = TEME
TIME_SYSTEM    = UTC
MEAN_ELEMENT_THEORY = SGP/SGP4

EPOCH          = 2026-01-27T23:01:40.453536
MEAN_MOTION    = 14.87551621
ECCENTRICITY   = .0004701
INCLINATION    = 97.7985
RA_OF_ASC_NODE = 28.8462
ARG_OF_PERICENTER = 229.1394
MEAN_ANOMALY   = 130.9415

EPHEMERIS_TYPE = 0
CLASSIFICATION_TYPE = U
NORAD_CAT_ID   = 67373
ELEMENT_SET_NO = 999
REV_AT_EPOCH   = 244
BSTAR          = .36132852E-3
MEAN_MOTION_DOT = .3227E-4
MEAN_MOTION_DDOT = 0

CCSDS_OMM_VERS = 2.0
CREATION_DATE  = 
ORIGINATOR     = 

OBJECT_NAME    = TWILIGHT M
OBJECT_ID      = 2026-004M
CENTER_NAME    = EARTH
REF_FRAME      = TEME
TIME_SYSTEM    = UTC
MEAN_ELEMENT_THEORY = SGP/SGP4

EPOCH          = 2026-01-27T22:56:34.715904
MEAN_MOTION    = 14.87898629
ECCENTRICITY   = .00033862
INCLINATION    = 97.7970
RA_OF_ASC_NODE = 28.8478
ARG_OF_PERICENTER = 216.6996
MEAN_ANOMALY   = 143.3989

EPHEMERIS_TYPE = 0
CLASSIFICATION_TYPE = U
NORAD_CAT_ID   = 67374
ELEMENT_SET_NO = 999
REV_AT_EPOCH   = 244
BSTAR          = .43095192E-3
MEAN_MOTION_DOT = .3892E-4
MEAN_MOTION_DDOT = 0

CCSDS_OMM_VERS = 2.0
CREATION_DATE  = 
ORIGINATOR     = 

OBJECT_NAME    = TWILIGHT N
OBJECT_ID      = 2026-004N
CENTER_NAME    = EARTH
REF_FRAME      = TEME
TIME_SYSTEM    = UTC
MEAN_ELEMENT_THEORY = SGP/SGP4

EPOCH          = 2026-01-27T22:56:09.284928
MEAN_MOTION    = 14.87926288
ECCENTRICITY   = .00039713
INCLINATION    = 97.8006
RA_OF_ASC_NODE = 28.8542
ARG_OF_PERICENTER = 211.0441
MEAN_ANOMALY   = 149.0541

EPHEMERIS_TYPE = 0
CLASSIFICATION_TYPE = U
NORAD_CAT_ID   = 67375
ELEMENT_SET_NO = 999
REV_AT_EPOCH   = 244
BSTAR          = .4618012E-3
MEAN_MOTION_DOT = .4178E-4
MEAN_MOTION_DDOT = 0

CCSDS_OMM_VERS = 2.0
CREATION_DATE  = 
ORIGINATOR     = 

OBJECT_NAME    = TWILIGHT P
OBJECT_ID      = 2026-004P
CENTER_NAME    = EARTH
REF_FRAME      = TEME
TIME_SYSTEM    = UTC
MEAN_ELEMENT_THEORY = SGP/SGP4

EPOCH          = 2026-01-27T22:58:27.169824
MEAN_MOTION    = 14.87777594
ECCENTRICITY   = .0004312
INCLINATION    = 97.8003
RA_OF_ASC_NODE = 28.8512
ARG_OF_PERICENTER = 218.0298
MEAN_ANOMALY   = 142.0615

EPHEMERIS_TYPE = 0
CLASSIFICATION_TYPE = U
NORAD_CAT_ID   = 67376
ELEMENT_SET_NO = 999
REV_AT_EPOCH   = 244
BSTAR          = .42850107E-3
MEAN_MOTION_DOT = .3858E-4
MEAN_MOTION_DDOT = 0

CCSDS_OMM_VERS = 2.0
CREATION_DATE  = 
ORIGINATOR     = 

OBJECT_NAME    = TWILIGHT Q
OBJECT_ID      = 2026-004Q
CENTER_NAME    = EARTH
REF_FRAME      = TEME
TIME_SYSTEM    = UTC
MEAN_ELEMENT_THEORY = SGP/SGP4

EPOCH          = 2026-01-27T21:19:05.879136
MEAN_MOTION    = 14.87948541
ECCENTRICITY   = .00039499
INCLINATION    = 97.8006
RA_OF_ASC_NODE = 28.7877
ARG_OF_PERICENTER = 209.9061
MEAN_ANOMALY   = 150.1931

EPHEMERIS_TYPE = 0
CLASSIFICATION_TYPE = U
NORAD_CAT_ID   = 67377
ELEMENT_SET_NO = 999
REV_AT_EPOCH   = 242
BSTAR          = .74903852E-3
MEAN_MOTION_DOT = .6816E-4
MEAN_MOTION_DDOT = 0

CCSDS_OMM_VERS = 2.0
CREATION_DATE  = 
ORIGINATOR     = 

OBJECT_NAME    = TWILIGHT R
OBJECT_ID      = 2026-004R
CENTER_NAME    = EARTH
REF_FRAME      = TEME
TIME_SYSTEM    = UTC
MEAN_ELEMENT_THEORY = SGP/SGP4

EPOCH          = 2026-01-27T22:59:38.261472
MEAN_MOTION    = 14.87701297
ECCENTRICITY   = .00037248
INCLINATION    = 97.7977
RA_OF_ASC_NODE = 28.8462
ARG_OF_PERICENTER = 228.5283
MEAN_ANOMALY   = 131.5614

EPHEMERIS_TYPE = 0
CLASSIFICATION_TYPE = U
NORAD_CAT_ID   = 67378
ELEMENT_SET_NO = 999
REV_AT_EPOCH   = 243
BSTAR          = .45663402E-3
MEAN_MOTION_DOT = .4107E-4
MEAN_MOTION_DDOT = 0

CCSDS_OMM_VERS = 2.0
CREATION_DATE  = 
ORIGINATOR     = 

OBJECT_NAME    = TWILIGHT S
OBJECT_ID      = 2026-004S
CENTER_NAME    = EARTH
REF_FRAME      = TEME
TIME_SYSTEM    = UTC
MEAN_ELEMENT_THEORY = SGP/SGP4

EPOCH          = 2026-01-27T21:22:35.674752
MEAN_MOTION    = 14.87711477
ECCENTRICITY   = .00042352
INCLINATION    = 97.7982
RA_OF_ASC_NODE = 28.7818
ARG_OF_PERICENTER = 224.6791
MEAN_ANOMALY   = 135.4084

EPHEMERIS_TYPE = 0
CLASSIFICATION_TYPE = U
NORAD_CAT_ID   = 67379
ELEMENT_SET_NO = 999
REV_AT_EPOCH   = 242
BSTAR          = .45112528E-3
MEAN_MOTION_DOT = .4058E-4
MEAN_MOTION_DDOT = 0

CCSDS_OMM_VERS = 2.0
CREATION_DATE  = 
ORIGINATOR     = 

OBJECT_NAME    = TWILIGHT T
OBJECT_ID      = 2026-004T
CENTER_NAME    = EARTH
REF_FRAME      = TEME
TIME_SYSTEM    = UTC
MEAN_ELEMENT_THEORY = SGP/SGP4

EPOCH          = 2026-01-27T21:21:12.274560
MEAN_MOTION    = 14.87808813
ECCENTRICITY   = .00037332
INCLINATION    = 97.7974
RA_OF_ASC_NODE = 28.7820
ARG_OF_PERICENTER = 223.5836
MEAN_ANOMALY   = 136.5086

EPHEMERIS_TYPE = 0
CLASSIFICATION_TYPE = U
NORAD_CAT_ID   = 67380
ELEMENT_SET_NO = 999
REV_AT_EPOCH   = 242
BSTAR          = .45555154E-3
MEAN_MOTION_DOT = .4108E-4
MEAN_MOTION_DDOT = 0

CCSDS_OMM_VERS = 2.0
CREATION_DATE  = 
ORIGINATOR     = 

OBJECT_NAME    = TWILIGHT U
OBJECT_ID      = 2026-004U
CENTER_NAME    = EARTH
REF_FRAME      = TEME
TIME_SYSTEM    = UTC
MEAN_ELEMENT_THEORY = SGP/SGP4

EPOCH          = 2026-01-27T22:55:53.701824
MEAN_MOTION    = 14.87947708
ECCENTRICITY   = .00040996
INCLINATION    = 97.8010
RA_OF_ASC_NODE = 28.8560
ARG_OF_PERICENTER = 211.3544
MEAN_ANOMALY   = 148.7429

EPHEMERIS_TYPE = 0
CLASSIFICATION_TYPE = U
NORAD_CAT_ID   = 67381
ELEMENT_SET_NO = 999
REV_AT_EPOCH   = 243
BSTAR          = .52278117E-3
MEAN_MOTION_DOT = .4739E-4
MEAN_MOTION_DDOT = 0

CCSDS_OMM_VERS = 2.0
CREATION_DATE  = 
ORIGINATOR     = 

OBJECT_NAME    = TWILIGHT V
OBJECT_ID      = 2026-004V
CENTER_NAME    = EARTH
REF_FRAME      = TEME
TIME_SYSTEM    = UTC
MEAN_ELEMENT_THEORY = SGP/SGP4

EPOCH          = 2026-01-27T22:54:53.592480
MEAN_MOTION    = 14.88003862
ECCENTRICITY   = .00036963
INCLINATION    = 97.8002
RA_OF_ASC_NODE = 28.8543
ARG_OF_PERICENTER = 206.0647
MEAN_ANOMALY   = 154.0384

EPHEMERIS_TYPE = 0
CLASSIFICATION_TYPE = U
NORAD_CAT_ID   = 67382
ELEMENT_SET_NO = 999
REV_AT_EPOCH   = 243
BSTAR          = .45261633E-3
MEAN_MOTION_DOT = .4101E-4
MEAN_MOTION_DDOT = 0

CCSDS_OMM_VERS = 2.0
CREATION_DATE  = 
ORIGINATOR     = 

OBJECT_NAME    = TWILIGHT W
OBJECT_ID      = 2026-004W
CENTER_NAME    = EARTH
REF_FRAME      = TEME
TIME_SYSTEM    = UTC
MEAN_ELEMENT_THEORY = SGP/SGP4

EPOCH          = 2026-01-27T21:22:23.187360
MEAN_MOTION    = 14.87727258
ECCENTRICITY   = .00040521
INCLINATION    = 97.7978
RA_OF_ASC_NODE = 28.7816
ARG_OF_PERICENTER = 225.8336
MEAN_ANOMALY   = 134.2548

EPHEMERIS_TYPE = 0
CLASSIFICATION_TYPE = U
NORAD_CAT_ID   = 67383
ELEMENT_SET_NO = 999
REV_AT_EPOCH   = 242
BSTAR          = .453921E-3
MEAN_MOTION_DOT = .4085E-4
MEAN_MOTION_DDOT = 0

