TWILIGHT K              
1 67372U 26004K   26027.95518659  .00003560  00000+0  39423-3 0  9999
2 67372  97.7971  28.8501 0003117 215.5981 144.5028 14.87946540  2446
TWILIGHT L              
1 67373U 26004L   26027.95949599  .00003227  00000+0  36133-3 0  9996
2 67373  97.7985  28.8462 0004701 229.1394 130.9415 14.87551621  2448
TWILIGHT M              
1 67374U 26004M   26027.95595736  .00003892  00000+0  43095-3 0  9990
2 67374  97.7970  28.8478 0003386 216.6996 143.3989 14.87898629  2443
TWILIGHT N              
1 67375U 26004N   26027.95566302  .00004178  00000+0  46180-3 0  9994
2 67375  97.8006  28.8542 0003971 211.0441 149.0541 14.87926288  2441
TWILIGHT P              
1 67376U 26004P   26027.95725891  .00003858  00000+0  42850-3 0  9999
2 67376  97.8003  28.8512 0004312 218.0298 142.0615 14.87777594  2442
TWILIGHT Q              
1 67377U 26004Q   26027.88826249  .00006816  00000+0  74904-3 0  9993
2 67377  97.8006  28.7877 0003949 209.9061 150.1931 14.87948541  2422
TWILIGHT R              
1 67378U 26004R   26027.95808173  .00004107  00000+0  45663-3 0  9999
2 67378  97.7977  28.8462 0003724 228.5283 131.5614 14.87701297  2431
TWILIGHT S              
1 67379U 26004S   26027.89069068  .00004058  00000+0  45113-3 0  9990
2 67379  97.7982  28.7818 0004235 224.6791 135.4084 14.87711477  2425
TWILIGHT T              
1 67380U 26004T   26027.88972540  .00004108  00000+0  45555-3 0  9995
2 67380  97.7974  28.7820 0003733 223.5836 136.5086 14.87808813  2426
TWILIGHT U              
1 67381U 26004U   26027.95548266  .00004739  00000+0  52278-3 0  9998
2 67381  97.8010  28.8560 0004099 211.3544 148.7429 14.87947708  2432
TWILIGHT V              
1 67382U 26004V   26027.95478695  .00004101  00000+0  45262-3 0  9995
2 67382  97.8002  28.8543 0003696 206.0647 154.0384 14.88003862  2437
TWILIGHT W              
1 67383U 26004W   26027.89054615  .00004085  00000+0  45392-3 0  9996
2 67383  97.7978  28.7816 0004052 225.8336 134.2548 14.87727258  2424
